     3.04           N: GNSS NAV DATA    C: BEIDOU           RINEX VERSION / TYPE
Spider V7.7.2.9082  BYGEO               20231026 145942 UTC PGM / RUN BY / DATE
     4     4   573     6BDS                                 LEAP SECONDS
                                                            END OF HEADER
C10 2023 10 26 13 00 00 5.559180863202D-06-1.336619703807D-11 0.000000000000D+00
     1.000000000000D+00-2.050000000000D+01 2.792616360381D-09-3.138476209446D+00
    -5.224719643593D-07 9.342533419840D-03-1.414585858583D-05 6.493644712448D+03
     3.924000000000D+05-1.164153218269D-07-1.864604400692D+00 1.895241439342D-07
     8.623966006800D-01 6.416250000000D+02-2.431726748551D+00-3.635151513137D-09
    -1.160762666541D-10                    9.290000000000D+02                   
     2.000000000000D+00 0.000000000000D+00 6.500000093723D-09 2.900000017902D-09
     3.924000000000D+05 0.000000000000D+00                                      
C07 2023 10 26 13 00 00-2.186575438827D-04-5.979039485737D-11 0.000000000000D+00
     1.000000000000D+00-4.096875000000D+01 2.795473630357D-09-2.758609417966D+00
    -1.174863427877D-06 3.066504490562D-03-1.367367804050D-05 6.493508419037D+03
     3.924000000000D+05-1.676380634308D-07-1.858848913776D+00 2.118758857250D-07
     8.601957794070D-01 6.270000000000D+02-2.579434567552D+00-3.625865385715D-09
    -1.460775111983D-10                    9.290000000000D+02                   
     2.000000000000D+00 0.000000000000D+00 1.509999947302D-08 8.000000106811D-10
     3.924000000000D+05 0.000000000000D+00                                      
C42 2023 10 26 13 00 00-5.130686331540D-04 8.415490526659D-12 0.000000000000D+00
     1.000000000000D+00 7.281250000000D+00 4.289821387005D-09 2.550172030798D+00
     4.735775291920D-07 1.098266453482D-03 2.716202288866D-06 5.282619045258D+03
     3.924000000000D+05 1.364387571812D-07 1.130276925416D+00-7.450580596924D-09
     9.725488680498D-01 3.104375000000D+02-1.209355348402D+00-7.276731661676D-09
     1.303625679627D-10                    9.290000000000D+02                   
     2.000000000000D+00 0.000000000000D+00-3.230000089616D-08-3.230000089616D-08
     3.924000000000D+05 1.000000000000D+00                                      
C06 2023 10 26 13 00 00 7.127388380468D-05 1.616751177380D-11 0.000000000000D+00
     1.000000000000D+00-3.450937500000D+02 9.036090764525D-10-4.533221860029D-01
    -1.161312684417D-05 3.758971579373D-03 3.904337063432D-05 6.492940183640D+03
     3.924000000000D+05 1.247972249985D-07 2.470642881290D+00-1.611188054085D-07
     9.469441209607D-01-9.679062500000D+02-2.974458975093D+00-1.808646787893D-09
    -8.596786615911D-10                    9.290000000000D+02                   
     2.000000000000D+00 0.000000000000D+00 8.899999848211D-09-1.400000004814D-09
     3.924000000000D+05 0.000000000000D+00                                      
C30 2023 10 26 13 00 00-7.193768396974D-06-1.071143174158D-12 0.000000000000D+00
     1.000000000000D+00-1.223750000000D+02 3.793729330681D-09 3.369818629329D-02
    -5.981419235468D-06 3.238258650526D-04 1.005036756396D-05 5.282617361069D+03
     3.924000000000D+05 6.426125764847D-08-9.893651552585D-01-1.862645149231D-08
     9.593529271173D-01 1.563906250000D+02 2.827360471712D-01-6.951718312109D-09
    -5.143071524216D-10                    9.290000000000D+02                   
     2.000000000000D+00 0.000000000000D+00-9.899999930951D-09-9.899999930951D-09
     3.924000000000D+05 1.000000000000D+00                                      
C60 2023 10 26 13 00 00-4.083849489689D-07-1.865174681370D-14 0.000000000000D+00
     1.000000000000D+00 9.523750000000D+02 1.987225717315D-09 1.641742366234D+00
     3.109546378255D-05 3.321043914184D-04 2.148840576410D-05 6.493447458267D+03
     3.924000000000D+05 9.173527359962D-08 1.834218727601D-01 5.494803190231D-08
     1.195803325894D-01-6.691093750000D+02 3.052121698605D+00-1.335055621610D-09
     1.532206722610D-10                    9.290000000000D+02                   
     2.000000000000D+00 0.000000000000D+00 4.760000038573D-08 4.760000038573D-08
     3.924004000000D+05 1.000000000000D+00                                      
C05 2023 10 26 13 00 00 1.739760627970D-04-6.030020927028D-11 0.000000000000D+00
     0.000000000000D+00 1.133843750000D+03 2.546534538794D-09 5.846879914474D-01
     3.686361014843D-05 6.845752941445D-04 4.292465746403D-06 6.493542108536D+03
     3.924000000000D+05 7.916241884232D-09 4.312671584311D-01-1.299194991589D-07
     1.174928962450D-01-1.417031250000D+02-2.791996056837D+00-1.853648678996D-09
     2.042942204294D-10                    9.290000000000D+02                   
     2.000000000000D+00 0.000000000000D+00 4.000000053406D-10-9.299999881307D-09
     3.924004000000D+05 0.000000000000D+00                                      
C02 2023 10 26 13 00 00 9.962567128241D-05 3.675992843455D-11 0.000000000000D+00
     5.000000000000D+00 1.157484375000D+03 3.012625487944D-09-1.109574280760D+00
     3.760354593396D-05 6.740611279383D-04-1.356471329927D-06 6.493553836823D+03
     3.924000000000D+05 1.094304025173D-07 4.954941453314D-01-3.911554813385D-08
     1.172069586660D-01 3.542187500000D+01-7.226156559569D-01-2.322953903211D-09
     2.614394614315D-10                    9.290000000000D+02                   
     2.000000000000D+00 1.000000000000D+00 1.700000000000D-09-1.420000000000D-08
     3.924000000000D+05 0.000000000000D+00                                      
C29 2023 10 26 13 00 00 1.928947167471D-04 4.948041976149D-12 0.000000000000D+00
     1.000000000000D+00-1.291875000000D+02 3.736941422972D-09 2.936101669745D+00
    -6.275717169046D-06 7.336633279920D-05 9.634997695684D-06 5.282621158600D+03
     3.924000000000D+05 3.725290298462D-08-9.898617574297D-01-4.284083843231D-08
     9.594011317309D-01 1.626406250000D+02 2.843705864609D+00-6.971004662404D-09
    -5.221645893450D-10                    9.290000000000D+02                   
     2.000000000000D+00 0.000000000000D+00-2.000000026703D-10-2.000000026703D-10
     3.949800000000D+05 1.000000000000D+00                                      
C33 2023 10 26 13 00 00-9.502532193437D-04 3.710809437507D-12 0.000000000000D+00
     1.000000000000D+00 4.859375000000D+00 4.225533256630D-09-1.434709419920D-01
     2.877786755562D-07 2.425233833492D-04 2.725981175900D-06 5.282619451523D+03
     3.924000000000D+05-1.024454832077D-08 1.126363034387D+00-6.239861249924D-08
     9.736987362893D-01 3.120781250000D+02 6.842499900329D-01-7.201371499121D-09
     9.393248678879D-11                    9.290000000000D+02                   
     2.000000000000D+00 0.000000000000D+00-4.500000017060D-08-4.500000017060D-08
     3.953400000000D+05 1.000000000000D+00                                      
C21 2023 10 26 14 00 00-9.690693113953D-04 3.499422973618D-13 0.000000000000D+00
     1.000000000000D+00 1.989062500000D+01 4.306965006862D-09 3.037246532526D+00
     1.053325831890D-06 3.598763141781D-04 2.537388354540D-06 5.282616397858D+03
     3.960000000000D+05-1.955777406693D-08 1.134600322326D+00 3.864988684654D-08
     9.741795506485D-01 3.157187500000D+02-4.477516148577D-01-7.201014451397D-09
     2.292952633320D-10                    9.290000000000D+02                   
     2.000000000000D+00 0.000000000000D+00 1.130000004679D-08 1.130000004679D-08
     3.960000000000D+05 1.000000000000D+00                                      
C26 2023 10 26 14 00 00-1.972164027393D-04-5.558220550483D-12 0.000000000000D+00
     1.000000000000D+00 8.162500000000D+01 3.975880069618D-09-5.446963198738D-02
     4.042871296406D-06 8.528751786798D-04 1.221569254994D-05 5.282628286362D+03
     3.960000000000D+05 1.350417733192D-08-3.078465855694D+00-2.048909664154D-08
     9.474533802991D-01 1.048593750000D+02 5.954664690314D-01-6.865286117375D-09
     2.396528531179D-10                    9.290000000000D+02                   
     2.000000000000D+00 0.000000000000D+00-5.199999986161D-09-5.199999986161D-09
     3.960000000000D+05 1.000000000000D+00                                      
C42 2023 10 26 14 00 00-5.130381323397D-04 8.451905841866D-12 0.000000000000D+00
     1.000000000000D+00 1.001562500000D+01 4.304107736885D-09 3.037782424288D+00
     5.858018994331D-07 1.098921522498D-03 2.556480467319D-06 5.282617774963D+03
     3.960000000000D+05 5.587935447693D-08 1.130250221310D+00 9.033828973770D-08
     9.725494254216D-01 3.145156250000D+02-1.209395160254D+00-7.251730771429D-09
     2.189376874240D-10                    9.290000000000D+02                   
     2.000000000000D+00 0.000000000000D+00-3.230000089616D-08-3.230000089616D-08
     3.960000000000D+05 1.000000000000D+00                                      
C27 2023 10 26 14 00 00 2.190149389207D-04 5.275779813019D-12 0.000000000000D+00
     1.000000000000D+00-1.021718750000D+02 3.697653960799D-09 1.934741066074D-01
    -5.239620804787D-06 4.552350146696D-04 9.952113032341D-06 5.282621774673D+03
     3.960000000000D+05 4.190951585770D-08-9.502492083909D-01 1.350417733192D-08
     9.613085296731D-01 1.586718750000D+02 1.346975135950D+00-6.886358150382D-09
    -4.725196900424D-10                    9.290000000000D+02                   
     2.000000000000D+00 0.000000000000D+00-4.499999928242D-09-4.499999928242D-09
     3.960000000000D+05 1.000000000000D+00                                      
